DMSP 5D-3 F16 (USA 172) 
1 28054U 03048A   26198.66033875 -.00000055  00000+0 -49900-5 0  9996
2 28054  98.9897 222.6892 0008054  65.0767  38.3744 14.14484755173799
METEOSAT-9 (MSG-2)      
1 28912U 05049B   26198.20569359  .00000111  00000+0  00000+0 0  9996
2 28912   9.4277  53.8679 0002295 356.6665   4.2059  1.00273115  7306
DMSP 5D-3 F17 (USA 191) 
1 29522U 06050A   26198.64621769 -.00000039  00000+0  20305-5 0  9995
2 29522  98.7388 204.5942 0009589 335.6345  24.4374 14.14996175 16739
FENGYUN 3A              
1 32958U 08026A   26198.28470017  .00000021  00000+0  30477-4 0  9995
2 32958  98.6886 138.5558 0009599  46.5170 313.6803 14.19576723939677
EWS-G3 (GOES 14)        
1 35491U 09033A   26198.69697698 -.00000369  00000+0  00000+0 0  9990
2 35491   1.7666  82.6625 0002017  39.8974 187.3661  1.00096994  6892
DMSP 5D-3 F18 (USA 210) 
1 35951U 09057A   26198.69021951  .00000158  00000+0  10488-3 0  9990
2 35951  98.9058 179.3963 0011380 158.5739 201.5913 14.14912709863908
EWS-G2 (GOES 15)        
1 36411U 10008A   26198.66391242  .00000013  00000+0  00000+0 0  9995
2 36411   1.3597  82.4311 0005330  54.3620 100.9749  1.00268908 59943
COMS 1                  
1 36744U 10032A   26198.47248728 -.00000240  00000+0  00000+0 0  9993
2 36744   4.8812  74.9910 0011288  15.0272 328.3763  0.99167397 51386
FENGYUN 3B              
1 37214U 10059A   26198.72783684  .00000059  00000+0  53759-4 0  9999
2 37214  98.9599 244.8694 0023169  99.6692  38.3661 14.14846974811743
SUOMI NPP               
1 37849U 11061A   26198.71997669  .00000024  00000+0  32266-4 0  9998
2 37849  98.7955 139.3886 0000863 201.3283 158.7857 14.19522843762779
METEOSAT-10 (MSG-3)     
1 38552U 12035B   26198.33916918 -.00000019  00000+0  00000+0 0  9999
2 38552   4.7414  60.8716 0001249  16.5280 339.9011  1.00271443 51151
METOP-B                 
1 38771U 12049A   26198.66885448  .00000031  00000+0  33954-4 0  9998
2 38771  98.6488 249.5574 0001166 241.4411 118.6649 14.21446784717593
INSAT-3D                
1 39216U 13038B   26198.71876426 -.00000350  00000+0  00000+0 0  9990
2 39216   2.0031  82.1544 0000573  71.0599 170.5381  1.00267572 47386
FENGYUN 3C              
1 39260U 13052A   26198.71604071  .00000009  00000+0  25681-4 0  9997
2 39260  98.5001 171.1926 0013573 298.1385  61.8418 14.15761080662888
METEOR-M 2              
1 40069U 14037A   26198.69478034  .00000143  00000+0  84778-4 0  9996
2 40069  98.5134 173.3561 0004989 318.6023  41.4776 14.21469984623659
HIMAWARI-8              
1 40267U 14060A   26198.65216719 -.00000285  00000+0  00000+0 0  9997
2 40267   0.0161  31.8141 0001172 133.8322 145.2650  1.00270837 43064
FENGYUN 2G              
1 40367U 14090A   26198.76552752 -.00000313  00000+0  00000+0 0  9995
2 40367   5.7141  72.4450 0004141 173.4665  64.6484  1.00279768 42305
METEOSAT-11 (MSG-4)     
1 40732U 15034A   26198.62620751  .00000051  00000+0  00000+0 0  9998
2 40732   3.2748  70.9144 0002112 354.6343 104.5816  1.00272618  7527
ELEKTRO-L 2             
1 41105U 15074A   26198.40763157 -.00000130  00000+0  00000+0 0  9990
2 41105   6.7681  70.1492 0001012 216.2851 141.0386  1.00272043 38804
SENTINEL-3A             
1 41335U 16011A   26198.65291667  .00000041  00000+0  35147-4 0  9991
2 41335  98.6236 265.5967 0001338  89.5014 270.6319 14.26740203542406
INSAT-3DR               
1 41752U 16054A   26198.63894367 -.00000086  00000+0  00000+0 0  9990
2 41752   0.0761  88.8944 0010480 180.8812 329.6862  1.00271000 36126
HIMAWARI-9              
1 41836U 16064A   26198.65225384 -.00000285  00000+0  00000+0 0  9994
2 41836   0.0291 243.3409 0002096 291.2307 136.4215  1.00269723 35518
GOES 16                 
1 41866U 16071A   26198.60358742 -.00000100  00000+0  00000+0 0  9991
2 41866   0.4103  85.4547 0000568  85.8970 236.6588  1.00271228 35407
FENGYUN 4A              
1 41882U 16077A   26198.64887384 -.00000367  00000+0  00000+0 0  9993
2 41882   2.3983  79.9379 0008430 159.6698  53.1597  1.00266821 35232
CYGFM05                 
1 41884U 16078A   26198.69285439  .00014451  00000+0  18724-3 0  9998
2 41884  34.9568  58.3824 0005560  63.5759 296.5536 15.57932383533512
CYGFM04                 
1 41885U 16078B   26198.69246260  .00019985  00000+0  21121-3 0  9990
2 41885  34.9327  24.4791 0004119 114.5809 245.5347 15.63185212533775
CYGFM02                 
1 41886U 16078C   26198.69553080  .00023836  00000+0  22056-3 0  9990
2 41886  34.9409  18.0555 0004885 117.1561 242.9665 15.66488553533959
CYGFM01                 
1 41887U 16078D   26198.73186973  .00015370  00000+0  19371-3 0  9999
2 41887  34.9399  58.9257 0005474  56.4748 303.6499 15.58655158533472
CYGFM08                 
1 41888U 16078E   26198.63684713  .00018421  00000+0  20751-3 0  9998
2 41888  34.9433  38.2998 0005985  95.9449 264.1959 15.61551092533735
CYGFM07                 
1 41890U 16078G   26198.65791556  .00018244  00000+0  20473-3 0  9991
2 41890  34.9451  26.4734 0004529 114.0069 246.1131 15.61660959533767
CYGFM03                 
1 41891U 16078H   26198.69306086  .00018547  00000+0  20822-3 0  9990
2 41891  34.9406  28.1679 0004318  95.3454 264.7764 15.61648683533746
